SL-8 R/B                
1 21088U 91006B   26079.50972633  .00000086  00000+0  70898-4 0  9993
2 21088  82.9458 162.0022 0022409   8.6799   2.4075 13.77495635765563
OKEAN-3                 
1 21397U 91039A   26079.18503641  .00001649  00000+0  11452-3 0  9991
2 21397  82.5188 326.6770 0012859 297.8178  62.1744 15.04870461866611
COSMOS 2151             
1 21422U 91042A   26079.55588647  .00001760  00000+0  13870-3 0  9994
2 21422  82.4934  73.1908 0013250  30.1917 330.0068 15.00148389864820
SL-14 R/B               
1 21423U 91042B   26079.62935906  .00000463  00000+0  55565-4 0  9994
2 21423  82.4942 209.9250 0016506 200.5709 159.4842 14.81840518854696
ERS-1                   
1 21574U 91050A   26079.33249232  .00000243  00000+0  92306-4 0  9998
2 21574  98.7874  97.8344 0032219 168.8149 191.3761 14.39456904817260
ARIANE 40 R/B           
1 21610U 91050F   26079.42746871  .00000224  00000+0  79555-4 0  9990
2 21610  98.1990 131.2599 0003998  57.6464 302.5113 14.42900784820542
INTERCOSMOS 25          
1 21819U 91086A   26079.55429951  .00001572  00000+0  30065-3 0  9990
2 21819  82.6033 303.4412 1486804  93.5248 283.6435 12.12036979498006
SL-8 R/B                
1 21876U 92008B   26079.47754806  .00000004  00000+0 -12165-4 0  9991
2 21876  82.9223 259.7509 0035887 104.1540 285.3941 13.75969630710903
SL-8 R/B                
1 21938U 92020B   26079.62418155  .00000051  00000+0  37475-4 0  9997
2 21938  82.9319 145.6437 0027543 266.8050 258.6349 13.75550215702634
USA 81                  
1 21949U 92023A   26079.55659644  .00000160  00000+0  51965-4 0  9995
2 21949  85.0064 125.1710 0002138  70.2285 289.9138 14.32371342 96347
COSMOS 2219             
1 22219U 92076A   26079.48538914 -.00000137  00000+0 -47026-4 0  9991
2 22219  71.0639 355.5023 0018345 191.8062 168.2633 14.14093140719907
SL-16 R/B               
1 22220U 92076B   26079.48866910  .00000283  00000+0  16502-3 0  9997
2 22220  71.0006 165.6279 0010633  76.4105 295.4419 14.16861257723362
COSMOS 2221             
1 22236U 92080A   26079.47141585  .00001853  00000+0  16166-3 0  9992
2 22236  82.5000 268.7503 0014963 151.5757 208.6284 14.96242273782408
SL-16 R/B               
1 22285U 92093B   26079.48136973  .00000275  00000+0  16513-3 0  9999
2 22285  71.0238 341.6133 0006302 282.8588  77.1830 14.15448911714685
COSMOS 2228             
1 22286U 92094A   26079.54742125  .00002312  00000+0  19702-3 0  9997
2 22286  82.5171 226.9135 0016607 265.0942  94.8385 14.97243767777684
SL-16 R/B               
1 22566U 93016B   26079.38148413 -.00000264  00000+0 -11106-3 0  9991
2 22566  71.0081 192.7264 0012326 300.1830  59.8071 14.15307268703681
COSMOS 2242             
1 22626U 93024A   26079.46742004  .00001708  00000+0  14750-3 0  9992
2 22626  82.5153 256.4045 0014936 269.2745  90.6766 14.96591227782005
