[{"OBJECT_NAME":"SL-8 R/B","OBJECT_ID":"1991-006B","EPOCH":"2026-03-20T12:14:00.354912","MEAN_MOTION":13.77495635,"ECCENTRICITY":0.00224093,"INCLINATION":82.9458,"RA_OF_ASC_NODE":162.0022,"ARG_OF_PERICENTER":8.6799,"MEAN_ANOMALY":2.4075,"EPHEMERIS_TYPE":0,"CLASSIFICATION_TYPE":"U","NORAD_CAT_ID":21088,"ELEMENT_SET_NO":999,"REV_AT_EPOCH":76556,"BSTAR":7.0897911e-5,"MEAN_MOTION_DOT":8.6e-7,"MEAN_MOTION_DDOT":0},{"OBJECT_NAME":"OKEAN-3","OBJECT_ID":"1991-039A","EPOCH":"2026-03-20T04:26:27.145824","MEAN_MOTION":15.04870461,"ECCENTRICITY":0.00128592,"INCLINATION":82.5188,"RA_OF_ASC_NODE":326.677,"ARG_OF_PERICENTER":297.8178,"MEAN_ANOMALY":62.1744,"EPHEMERIS_TYPE":0,"CLASSIFICATION_TYPE":"U","NORAD_CAT_ID":21397,"ELEMENT_SET_NO":999,"REV_AT_EPOCH":86661,"BSTAR":0.00011452243,"MEAN_MOTION_DOT":1.649e-5,"MEAN_MOTION_DDOT":0},{"OBJECT_NAME":"COSMOS 2151","OBJECT_ID":"1991-042A","EPOCH":"2026-03-20T13:20:28.591008","MEAN_MOTION":15.00148389,"ECCENTRICITY":0.00132506,"INCLINATION":82.4934,"RA_OF_ASC_NODE":73.1908,"ARG_OF_PERICENTER":30.1917,"MEAN_ANOMALY":330.0068,"EPHEMERIS_TYPE":0,"CLASSIFICATION_TYPE":"U","NORAD_CAT_ID":21422,"ELEMENT_SET_NO":999,"REV_AT_EPOCH":86482,"BSTAR":0.00013870085,"MEAN_MOTION_DOT":1.76e-5,"MEAN_MOTION_DDOT":0},{"OBJECT_NAME":"SL-14 R/B","OBJECT_ID":"1991-042B","EPOCH":"2026-03-20T15:06:16.622784","MEAN_MOTION":14.81840518,"ECCENTRICITY":0.00165065,"INCLINATION":82.4942,"RA_OF_ASC_NODE":209.925,"ARG_OF_PERICENTER":200.5709,"MEAN_ANOMALY":159.4842,"EPHEMERIS_TYPE":0,"CLASSIFICATION_TYPE":"U","NORAD_CAT_ID":21423,"ELEMENT_SET_NO":999,"REV_AT_EPOCH":85469,"BSTAR":5.5565374e-5,"MEAN_MOTION_DOT":4.63e-6,"MEAN_MOTION_DDOT":0},{"OBJECT_NAME":"ERS-1","OBJECT_ID":"1991-050A","EPOCH":"2026-03-20T07:58:47.336448","MEAN_MOTION":14.39456904,"ECCENTRICITY":0.0032219,"INCLINATION":98.7874,"RA_OF_ASC_NODE":97.8344,"ARG_OF_PERICENTER":168.8149,"MEAN_ANOMALY":191.3761,"EPHEMERIS_TYPE":0,"CLASSIFICATION_TYPE":"U","NORAD_CAT_ID":21574,"ELEMENT_SET_NO":999,"REV_AT_EPOCH":81726,"BSTAR":9.2306e-5,"MEAN_MOTION_DOT":2.43e-6,"MEAN_MOTION_DDOT":0},{"OBJECT_NAME":"ARIANE 40 R/B","OBJECT_ID":"1991-050F","EPOCH":"2026-03-20T10:15:33.296544","MEAN_MOTION":14.42900784,"ECCENTRICITY":0.00039981,"INCLINATION":98.199,"RA_OF_ASC_NODE":131.2599,"ARG_OF_PERICENTER":57.6464,"MEAN_ANOMALY":302.5113,"EPHEMERIS_TYPE":0,"CLASSIFICATION_TYPE":"U","NORAD_CAT_ID":21610,"ELEMENT_SET_NO":999,"REV_AT_EPOCH":82054,"BSTAR":7.9555303e-5,"MEAN_MOTION_DOT":2.24e-6,"MEAN_MOTION_DDOT":0},{"OBJECT_NAME":"INTERCOSMOS 25","OBJECT_ID":"1991-086A","EPOCH":"2026-03-20T13:18:11.477664","MEAN_MOTION":12.12036979,"ECCENTRICITY":0.14868047,"INCLINATION":82.6033,"RA_OF_ASC_NODE":303.4412,"ARG_OF_PERICENTER":93.5248,"MEAN_ANOMALY":283.6435,"EPHEMERIS_TYPE":0,"CLASSIFICATION_TYPE":"U","NORAD_CAT_ID":21819,"ELEMENT_SET_NO":999,"REV_AT_EPOCH":49800,"BSTAR":0.00030064545,"MEAN_MOTION_DOT":1.572e-5,"MEAN_MOTION_DDOT":0},{"OBJECT_NAME":"SL-8 R/B","OBJECT_ID":"1992-008B","EPOCH":"2026-03-20T11:27:40.152384","MEAN_MOTION":13.7596963,"ECCENTRICITY":0.00358879,"INCLINATION":82.9223,"RA_OF_ASC_NODE":259.7509,"ARG_OF_PERICENTER":104.154,"MEAN_ANOMALY":285.3941,"EPHEMERIS_TYPE":0,"CLASSIFICATION_TYPE":"U","NORAD_CAT_ID":21876,"ELEMENT_SET_NO":999,"REV_AT_EPOCH":71090,"BSTAR":-1.2165451e-5,"MEAN_MOTION_DOT":4.0e-8,"MEAN_MOTION_DDOT":0},{"OBJECT_NAME":"SL-8 R/B","OBJECT_ID":"1992-020B","EPOCH":"2026-03-20T14:58:49.285920","MEAN_MOTION":13.75550215,"ECCENTRICITY":0.00275438,"INCLINATION":82.9319,"RA_OF_ASC_NODE":145.6437,"ARG_OF_PERICENTER":266.805,"MEAN_ANOMALY":258.6349,"EPHEMERIS_TYPE":0,"CLASSIFICATION_TYPE":"U","NORAD_CAT_ID":21938,"ELEMENT_SET_NO":999,"REV_AT_EPOCH":70263,"BSTAR":3.7474886e-5,"MEAN_MOTION_DOT":5.1e-7,"MEAN_MOTION_DDOT":0},{"OBJECT_NAME":"USA 81","OBJECT_ID":"1992-023A","EPOCH":"2026-03-20T13:21:29.932416","MEAN_MOTION":14.32371342,"ECCENTRICITY":0.00021384,"INCLINATION":85.0064,"RA_OF_ASC_NODE":125.171,"ARG_OF_PERICENTER":70.2285,"MEAN_ANOMALY":289.9138,"EPHEMERIS_TYPE":0,"CLASSIFICATION_TYPE":"U","NORAD_CAT_ID":21949,"ELEMENT_SET_NO":999,"REV_AT_EPOCH":9634,"BSTAR":5.196485e-5,"MEAN_MOTION_DOT":1.6e-6,"MEAN_MOTION_DDOT":0},{"OBJECT_NAME":"COSMOS 2219","OBJECT_ID":"1992-076A","EPOCH":"2026-03-20T11:38:57.621696","MEAN_MOTION":14.1409314,"ECCENTRICITY":0.00183456,"INCLINATION":71.0639,"RA_OF_ASC_NODE":355.5023,"ARG_OF_PERICENTER":191.8062,"MEAN_ANOMALY":168.2633,"EPHEMERIS_TYPE":0,"CLASSIFICATION_TYPE":"U","NORAD_CAT_ID":22219,"ELEMENT_SET_NO":999,"REV_AT_EPOCH":71990,"BSTAR":-4.7025996e-5,"MEAN_MOTION_DOT":-1.37e-6,"MEAN_MOTION_DDOT":0},{"OBJECT_NAME":"SL-16 R/B","OBJECT_ID":"1992-076B","EPOCH":"2026-03-20T11:43:41.010240","MEAN_MOTION":14.16861257,"ECCENTRICITY":0.00106336,"INCLINATION":71.0006,"RA_OF_ASC_NODE":165.6279,"ARG_OF_PERICENTER":76.4105,"MEAN_ANOMALY":295.4419,"EPHEMERIS_TYPE":0,"CLASSIFICATION_TYPE":"U","NORAD_CAT_ID":22220,"ELEMENT_SET_NO":999,"REV_AT_EPOCH":72336,"BSTAR":0.0001650213,"MEAN_MOTION_DOT":2.83e-6,"MEAN_MOTION_DDOT":0},{"OBJECT_NAME":"COSMOS 2221","OBJECT_ID":"1992-080A","EPOCH":"2026-03-20T11:18:50.329440","MEAN_MOTION":14.96242273,"ECCENTRICITY":0.00149638,"INCLINATION":82.5,"RA_OF_ASC_NODE":268.7503,"ARG_OF_PERICENTER":151.5757,"MEAN_ANOMALY":208.6284,"EPHEMERIS_TYPE":0,"CLASSIFICATION_TYPE":"U","NORAD_CAT_ID":22236,"ELEMENT_SET_NO":999,"REV_AT_EPOCH":78240,"BSTAR":0.00016165914,"MEAN_MOTION_DOT":1.853e-5,"MEAN_MOTION_DDOT":0},{"OBJECT_NAME":"SL-16 R/B","OBJECT_ID":"1992-093B","EPOCH":"2026-03-20T11:33:10.344672","MEAN_MOTION":14.15448911,"ECCENTRICITY":0.0006302,"INCLINATION":71.0238,"RA_OF_ASC_NODE":341.6133,"ARG_OF_PERICENTER":282.8588,"MEAN_ANOMALY":77.183,"EPHEMERIS_TYPE":0,"CLASSIFICATION_TYPE":"U","NORAD_CAT_ID":22285,"ELEMENT_SET_NO":999,"REV_AT_EPOCH":71468,"BSTAR":0.00016513234,"MEAN_MOTION_DOT":2.75e-6,"MEAN_MOTION_DDOT":0},{"OBJECT_NAME":"COSMOS 2228","OBJECT_ID":"1992-094A","EPOCH":"2026-03-20T13:08:17.196000","MEAN_MOTION":14.97243767,"ECCENTRICITY":0.0016607,"INCLINATION":82.5171,"RA_OF_ASC_NODE":226.9135,"ARG_OF_PERICENTER":265.0942,"MEAN_ANOMALY":94.8385,"EPHEMERIS_TYPE":0,"CLASSIFICATION_TYPE":"U","NORAD_CAT_ID":22286,"ELEMENT_SET_NO":999,"REV_AT_EPOCH":77768,"BSTAR":0.00019702414,"MEAN_MOTION_DOT":2.312e-5,"MEAN_MOTION_DDOT":0},{"OBJECT_NAME":"SL-16 R/B","OBJECT_ID":"1993-016B","EPOCH":"2026-03-20T09:09:20.228832","MEAN_MOTION":14.15307268,"ECCENTRICITY":0.00123268,"INCLINATION":71.0081,"RA_OF_ASC_NODE":192.7264,"ARG_OF_PERICENTER":300.183,"MEAN_ANOMALY":59.8071,"EPHEMERIS_TYPE":0,"CLASSIFICATION_TYPE":"U","NORAD_CAT_ID":22566,"ELEMENT_SET_NO":999,"REV_AT_EPOCH":70368,"BSTAR":-0.00011106362,"MEAN_MOTION_DOT":-2.64e-6,"MEAN_MOTION_DDOT":0},{"OBJECT_NAME":"COSMOS 2242","OBJECT_ID":"1993-024A","EPOCH":"2026-03-20T11:13:05.091456","MEAN_MOTION":14.96591227,"ECCENTRICITY":0.00149361,"INCLINATION":82.5153,"RA_OF_ASC_NODE":256.4045,"ARG_OF_PERICENTER":269.2745,"MEAN_ANOMALY":90.6766,"EPHEMERIS_TYPE":0,"CLASSIFICATION_TYPE":"U","NORAD_CAT_ID":22626,"ELEMENT_SET_NO":999,"REV_AT_EPOCH":78200,"BSTAR":0.00014749585,"MEAN_MOTION_DOT":1.708e-5,"MEAN_MOTION_DDOT":0}]
